AL MUNTHER              
1 63240U 25052AG  26068.64540749  .00017933  00000+0  65015-3 0  9992
2 63240  97.4001 323.9152 0008027 130.7043 229.4895 15.28381521 54798
STARLINK-34157          
1 64084U 25107W   26068.43183739  .00026726  00000+0  97682-3 0  9994
2 64084  42.9983 202.7687 0001566 199.7277 160.3514 15.27592506 46069
